OBJECT_NAME,OBJECT_ID,EPOCH,MEAN_MOTION,ECCENTRICITY,INCLINATION,RA_OF_ASC_NODE,ARG_OF_PERICENTER,MEAN_ANOMALY,EPHEMERIS_TYPE,CLASSIFICATION_TYPE,NORAD_CAT_ID,ELEMENT_SET_NO,REV_AT_EPOCH,BSTAR,MEAN_MOTION_DOT,MEAN_MOTION_DDOT
QZS-3 (MICHIBIKI-3),2017-048A,2026-07-23T13:00:38.746368,1.00268797,.00028894,0.0590,201.1938,286.2354,136.0069,0,U,42917,999,3262,0,-.343E-5,0
AMAZONAS 5,2017-053A,2026-07-23T11:23:04.860384,1.00272567,.00013407,0.0357,316.2781,143.8513,310.8415,0,U,42934,999,3240,0,-.278E-5,0
ASIASAT 9,2017-057A,2026-07-22T15:19:24.461184,1.00269552,.00020682,0.0156,54.9271,56.3405,181.0650,0,U,42942,999,3221,0,-.356E-5,0
INTELSAT 37E (IS-37E),2017-059A,2026-07-23T09:28:35.562720,1.00267925,.00030139,0.0228,56.6410,71.3836,297.2602,0,U,42950,999,3242,0,0,0
BSAT-4A,2017-059B,2026-07-23T13:16:38.626176,1.00271664,.00035733,0.0333,358.9192,86.4135,164.9411,0,U,42951,999,3216,0,-.345E-5,0
QZS-4 (MICHIBIKI-4),2017-062A,2026-07-21T06:10:27.954336,1.00289434,.07469394,40.0879,343.0509,268.6822,279.3148,0,U,42965,999,3214,0,-.358E-5,0
SES-11 (ECHOSTAR 105),2017-063A,2026-07-22T14:14:39.871392,1.00272007,.0002937,0.0167,350.7953,118.1538,300.0925,0,U,42967,999,3207,0,-.85E-6,0
KOREASAT 5A,2017-067A,2026-07-23T13:08:38.686272,1.00271653,.00010684,0.0111,38.3322,61.7182,151.5341,0,U,42984,999,3189,0,-.353E-5,0
ALCOMSAT 1,2017-078A,2026-07-23T09:26:43.242720,1.00272299,.00025379,0.0313,285.1145,195.4351,297.4446,0,U,43039,999,3165,0,-.181E-5,0
SBIRS GEO-3 (USA 282),2018-009A,2026-07-23T11:25:21.476064,1.00272993,.0002102,2.2108,13.7682,99.6707,199.7049,0,U,43162,999,3120,0,.132E-5,0
AL YAH 3,2018-012A,2026-07-23T09:28:05.611296,1.00272138,.00037524,1.6425,82.6681,35.3078,305.0623,0,U,43174,999,3120,0,-.152E-5,0
SES-14,2018-012B,2026-07-23T12:45:32.954688,1.00272401,.00011767,0.0126,36.6040,76.7849,331.7515,0,U,43175,999,739,0,-.274E-5,0
GOES 17,2018-022A,2026-07-23T14:16:11.578080,1.00271882,.00007161,1.0278,85.1400,57.4315,283.3017,0,U,43226,999,3078,0,-.179E-5,0
HISPASAT 30W-6,2018-023A,2026-07-23T09:25:13.385856,1.00272890,.000537,0.0409,51.3716,44.7905,316.2773,0,U,43228,999,3076,0,-.211E-5,0
SUPERBIRD-B3,2018-033A,2026-07-23T13:45:14.544864,1.00272308,.00015662,0.0209,301.4772,198.8363,169.3052,0,U,43271,999,3042,0,-.87E-6,0
HYLAS 4,2018-033B,2026-07-23T05:58:51.662784,1.00272056,.00008171,0.0326,260.6679,230.9204,225.6170,0,U,43272,999,3042,0,-.229E-5,0
IRNSS-1I,2018-035A,2026-07-21T21:28:12.531936,1.00274701,.00184053,28.8336,73.6540,179.0574,64.0489,0,U,43286,999,3042,0,.62E-6,0
USA 283,2018-036A,2026-07-19T12:06:14.262336,1.00271912,.0000802,0.0121,113.1212,85.3615,54.4575,0,U,43339,999,2561,0,-.322E-5,0
COSMOS 2526,2018-037A,2026-07-22T23:54:26.379360,1.00271440,.00007082,0.0299,90.3471,144.5093,192.5334,0,U,43432,999,3031,0,-.34E-5,0
APSTAR-6C,2018-041A,2026-07-21T17:08:21.046272,1.00272947,.0000212,0.0438,302.0343,323.4886,65.0495,0,U,43450,999,3015,0,-.315E-5,0
BANGABANDHUSAT-1,2018-044A,2026-07-23T13:33:00.717696,1.00270669,.00023015,0.0128,108.4912,21.8646,133.2846,0,U,43463,999,3007,0,-.358E-5,0
SES-12,2018-049A,2026-07-23T13:26:08.875680,1.00272828,.00006226,0.0103,12.2270,230.9593,354.6392,0,U,43488,999,2978,0,-.265E-5,0
FENGYUN 2H,2018-050A,2026-07-23T15:04:18.616800,1.00267354,.00020504,3.1228,78.6461,123.5879,44.2003,0,U,43491,999,2980,0,-.123E-5,0
BEIDOU-2 IGSO-7,2018-057A,2026-07-16T19:52:42.225600,1.00242392,.01049148,55.1987,162.7987,237.9691,299.1450,0,U,43539,999,2942,0,-.84E-6,0
TELSTAR 19V,2018-059A,2026-07-23T12:41:03.385824,1.00271177,.00031833,0.0318,173.4316,315.2839,299.8049,0,U,43562,999,2950,0,-.275E-5,0
TELKOM 4 (MERAH PUTIH),2018-064A,2026-07-23T13:29:53.517408,1.00270761,.00013557,0.0156,76.0714,46.8798,128.8031,0,U,43587,999,2924,0,-.339E-5,0
TELSTAR 18V,2018-069A,2026-07-23T12:52:38.807328,1.00270597,.00020296,0.0152,314.2740,166.2558,151.8984,0,U,43611,999,2900,0,-.289E-5,0
AZERSPACE 2 (IS-38),2018-074A,2026-07-23T08:33:38.785824,1.00269800,.0001318,0.0174,47.4997,54.2391,12.8730,0,U,43632,999,2881,0,.141E-5,0
HORIZONS-3E,2018-074B,2026-07-23T13:47:14.353152,1.00272034,.00003154,0.0322,239.3133,79.1148,358.6734,0,U,43633,999,2870,0,-.26E-6,0
AEHF-4 (USA 288),2018-079A,2026-07-23T12:40:03.482112,1.00273162,.00604403,1.4327,4.6954,355.8636,63.2098,0,U,43651,999,2866,0,-.271E-5,0
BEIDOU-3 G1,2018-085A,2026-07-23T13:44:37.105152,1.00273100,.00083559,2.9583,96.3880,357.6120,213.4579,0,U,43683,999,2842,0,-.106E-5,0
