QZS-3 (MICHIBIKI-3)     
1 42917U 17048A   26204.54211512 -.00000343  00000+0  00000+0 0  9997
2 42917   0.0590 201.1938 0002889 286.2354 136.0069  1.00268797 32628
AMAZONAS 5              
1 42934U 17053A   26204.47436181 -.00000278  00000+0  00000+0 0  9992
2 42934   0.0357 316.2781 0001340 143.8513 310.8415  1.00272567 32401
ASIASAT 9               
1 42942U 17057A   26203.63847756 -.00000356  00000+0  00000+0 0  9993
2 42942   0.0156  54.9271 0002068  56.3405 181.0650  1.00269552 32211
INTELSAT 37E (IS-37E)   
1 42950U 17059A   26204.39485605  .00000000  00000+0  00000+0 0  9994
2 42950   0.0228  56.6410 0003013  71.3836 297.2602  1.00267925 32422
BSAT-4A                 
1 42951U 17059B   26204.55322484 -.00000345  00000+0  00000+0 0  9991
2 42951   0.0333 358.9192 0003573  86.4135 164.9411  1.00271664 32169
QZS-4 (MICHIBIKI-4)     
1 42965U 17062A   26202.25726799 -.00000358  00000+0  00000+0 0  9996
2 42965  40.0879 343.0509 0746939 268.6822 279.3148  1.00289434 32147
SES-11 (ECHOSTAR 105)   
1 42967U 17063A   26203.59351703 -.00000085  00000+0  00000+0 0  9993
2 42967   0.0167 350.7953 0002937 118.1538 300.0925  1.00272007 32074
KOREASAT 5A             
1 42984U 17067A   26204.54766998 -.00000353  00000+0  00000+0 0  9996
2 42984   0.0111  38.3322 0001068  61.7182 151.5341  1.00271653 31899
ALCOMSAT 1              
1 43039U 17078A   26204.39355605 -.00000181  00000+0  00000+0 0  9991
2 43039   0.0313 285.1145 0002537 195.4351 297.4446  1.00272299 31652
SBIRS GEO-3 (USA 282)   
1 43162U 18009A   26204.47594301  .00000132  00000+0  00000+0 0  9995
2 43162   2.2108  13.7682 0002102  99.6707 199.7049  1.00272993 31209
AL YAH 3                
1 43174U 18012A   26204.39450939 -.00000152  00000+0  00000+0 0  9994
2 43174   1.6425  82.6681 0003752  35.3078 305.0623  1.00272138 31202
SES-14                  
1 43175U 18012B   26204.53163142 -.00000274  00000+0  00000+0 0  9993
2 43175   0.0126  36.6040 0001176  76.7849 331.7515  1.00272401  7397
GOES 17                 
1 43226U 18022A   26204.59457845 -.00000179  00000+0  00000+0 0  9997
2 43226   1.0278  85.1400 0000716  57.4315 283.3017  1.00271882 30785
HISPASAT 30W-6          
1 43228U 18023A   26204.39251604 -.00000211  00000+0  00000+0 0  9990
2 43228   0.0409  51.3716 0005370  44.7905 316.2773  1.00272890 30765
SUPERBIRD-B3            
1 43271U 18033A   26204.57308501 -.00000087  00000+0  00000+0 0  9999
2 43271   0.0209 301.4772 0001566 198.8363 169.3052  1.00272308 30428
HYLAS 4                 
1 43272U 18033B   26204.24920906 -.00000229  00000+0  00000+0 0  9991
2 43272   0.0326 260.6679 0000817 230.9204 225.6170  1.00272056 30428
IRNSS-1I                
1 43286U 18035A   26202.89458949  .00000062  00000+0  00000+0 0  9994
2 43286  28.8336  73.6540 0018405 179.0574  64.0489  1.00274701 30423
USA 283                 
1 43339U 18036A   26200.50433174 -.00000322  00000+0  00000+0 0  9993
2 43339   0.0121 113.1212 0000802  85.3615  54.4575  1.00271912 25614
COSMOS 2526             
1 43432U 18037A   26203.99613865 -.00000340  00000+0  00000+0 0  9991
2 43432   0.0299  90.3471 0000708 144.5093 192.5334  1.00271440 30316
APSTAR-6C               
1 43450U 18041A   26202.71413248 -.00000315  00000+0  00000+0 0  9990
2 43450   0.0438 302.0343 0000212 323.4886  65.0495  1.00272947 30157
BANGABANDHUSAT-1        
1 43463U 18044A   26204.56459164 -.00000358  00000+0  00000+0 0  9996
2 43463   0.0128 108.4912 0002301  21.8646 133.2846  1.00270669 30079
SES-12                  
1 43488U 18049A   26204.55982495 -.00000265  00000+0  00000+0 0  9992
2 43488   0.0103  12.2270 0000622 230.9593 354.6392  1.00272828 29786
FENGYUN 2H              
1 43491U 18050A   26204.62799325 -.00000123  00000+0  00000+0 0  9997
2 43491   3.1228  78.6461 0002050 123.5879  44.2003  1.00267354 29803
BEIDOU-2 IGSO-7         
1 43539U 18057A   26197.82826650 -.00000084  00000+0  00000+0 0  9998
2 43539  55.1987 162.7987 0104914 237.9691 299.1450  1.00242392 29427
TELSTAR 19V             
1 43562U 18059A   26204.52851141 -.00000275  00000+0  00000+0 0  9997
2 43562   0.0318 173.4316 0003183 315.2839 299.8049  1.00271177 29508
TELKOM 4 (MERAH PUTIH)  
1 43587U 18064A   26204.56242497 -.00000339  00000+0  00000+0 0  9993
2 43587   0.0156  76.0714 0001355  46.8798 128.8031  1.00270761 29246
TELSTAR 18V             
1 43611U 18069A   26204.53656027 -.00000289  00000+0  00000+0 0  9995
2 43611   0.0152 314.2740 0002029 166.2558 151.8984  1.00270597 29000
AZERSPACE 2 (IS-38)     
1 43632U 18074A   26204.35669891  .00000141  00000+0  00000+0 0  9993
2 43632   0.0174  47.4997 0001318  54.2391  12.8730  1.00269800 28815
HORIZONS-3E             
1 43633U 18074B   26204.57447168 -.00000026  00000+0  00000+0 0  9992
2 43633   0.0322 239.3133 0000315  79.1148 358.6734  1.00272034 28703
AEHF-4 (USA 288)        
1 43651U 18079A   26204.52781808 -.00000271  00000+0  00000+0 0  9996
2 43651   1.4327   4.6954 0060440 355.8636  63.2098  1.00273162 28668
BEIDOU-3 G1             
1 43683U 18085A   26204.57265168 -.00000106  00000+0  00000+0 0  9996
2 43683   2.9583  96.3880 0008355 357.6120 213.4579  1.00273100 28423
